{"type":"FeatureCollection","bbox":[105.52729939264994,19.851067102638073,106.60148645205496,20.718060581986833],"features":[{"type":"Feature","id":"37","bbox":[105.52729939264994,19.851067102638073,106.60148645205496,20.718060581986833],"properties":{"name":"Ninh Bình","fullName":"Tỉnh Ninh Bình","code":"37","source":"provinces-db + Kim Sơn tip + buffer 1.5km + south push ~2km"},"geometry":{"type":"Polygon","coordinates":[[[105.52729939264994,20.358764973476408],[105.52750548466476,20.35647157163164],[105.52890116390819,20.348823689028514],[105.52963611482548,20.346300143232018],[105.53087669753533,20.343957037029668],[105.53292899917967,20.34152893219654],[105.53252270312429,20.338821989514326],[105.53264861918204,20.336425142631757],[105.53344310163588,20.33107221041618],[105.53410525041588,20.328497259479168],[105.53529119222192,20.326093266375242],[105.53695518503822,20.32395290710745],[105.53877721044358,20.322037018412967],[105.54098030443762,20.320155240870843],[105.5434924301321,20.3187709569731],[105.54655034256359,20.316449186063828],[105.54783328814774,20.315860449282447],[105.5487743241973,20.313106233299305],[105.55012056914781,20.310559259896934],[105.55200600928615,20.308333394778902],[105.5557482878597,20.305336715635462],[105.55924658639981,20.30353961955985],[105.56175124950963,20.302739608261625],[105.56431436144635,20.30226424357467],[105.56692687170005,20.30223153821557],[105.56836652250844,20.302461281827213],[105.56938536946802,20.302063002741264],[105.57244737545199,20.30002408476175],[105.57604753669091,20.29876462885154],[105.57966847323596,20.29831900457608],[105.58336422114043,20.29849415628296],[105.58592503306703,20.298321968517243],[105.58932844197025,20.298548222569543],[105.5914625132472,20.29904422627876],[105.59263790597498,20.29778191412501],[105.5947001143206,20.294631408972275],[105.59758157984069,20.28621339615428],[105.60000875970401,20.28216758674159],[105.60401982910707,20.276894360467615],[105.60930269915316,20.272793264666685],[105.61478272692905,20.26969229576391],[105.6175573261697,20.2687971466444],[105.61923824491521,20.268588794081523],[105.62311123392438,20.266635984013053],[105.62414665987141,20.2662850122932],[105.62912412087866,20.26544021152976],[105.63084629384961,20.264703900772368],[105.63378949425555,20.264093313782],[105.63815442346805,20.26390952043188],[105.6396059881726,20.263346772998943],[105.64568851097259,20.25741597468154],[105.65266402177241,20.25197281284885],[105.6547112757584,20.25005252811679],[105.65490605689891,20.248002453982263],[105.65563240339104,20.245588339428274],[105.65708654478739,20.24266256246267],[105.65861078759656,20.240368049624806],[105.6610328320051,20.2379742602496],[105.6649484925597,20.235556148375853],[105.66813063843081,20.230757468875957],[105.6697543879298,20.22875291190479],[105.67155047568139,20.227232586913146],[105.67347076891603,20.225164398821196],[105.67516470813001,20.223879231603913],[105.67706283181472,20.22276712012241],[105.677380922622,20.219727953754013],[105.67834769262822,20.21697735152497],[105.67991785410774,20.214483796025863],[105.68201900617551,20.21236222376596],[105.684850958372,20.2100573748699],[105.6870186687798,20.208600264896823],[105.68943582910677,20.207543907552257],[105.69284324082946,20.206402099309223],[105.69654560184722,20.203763298890347],[105.70126622791541,20.20134375587853],[105.70498768524907,20.1980572776237],[105.70728336107804,20.19670390849494],[105.70877409309107,20.19612970696431],[105.71301974578705,20.19300053645539],[105.72085071584497,20.187735894442476],[105.72325666376996,20.185083658908166],[105.7251361254415,20.183615831586117],[105.72617914121435,20.18305051226331],[105.72652264250796,20.182598458042005],[105.72720277271567,20.180516544211063],[105.72872764044132,20.177937771056794],[105.7309163149887,20.17557216882893],[105.73362729039648,20.173744252214608],[105.74426180825442,20.169272217618712],[105.74846621001842,20.167901334837577],[105.75413398957807,20.16571175493059],[105.75742549322574,20.165058986919185],[105.76257487703116,20.164590379184688],[105.7659416350646,20.163485546068245],[105.76817231684169,20.161424885382146],[105.77044298857429,20.160078325828735],[105.77370935504308,20.15892836065767],[105.7770182244495,20.158550207194057],[105.77920379206354,20.158711914941875],[105.78524160909642,20.15725580593273],[105.78908524954252,20.15449564262997],[105.79654313051864,20.149772589072207],[105.80234984804044,20.14679591881991],[105.80551196848532,20.145264536306925],[105.80871407317967,20.14398263371276],[105.81256593469439,20.14196453618215],[105.81837219184483,20.14007852964794],[105.819543646935,20.137732990876923],[105.82141994475505,20.13543307712455],[105.82377596122983,20.13356230750943],[105.82669684651887,20.131708440400917],[105.82917542540876,20.130448546122143],[105.83186825223602,20.12966717739552],[105.83740304058854,20.12891603776219],[105.83861001344695,20.128201433766378],[105.84104711026608,20.12728822570821],[105.84442193741127,20.12665589473151],[105.84811912306495,20.124104586920385],[105.85331163690897,20.11896622713847],[105.85568450423335,20.117077401960163],[105.86128450764062,20.113186695180627],[105.86492251517876,20.111535293094597],[105.86793896207338,20.109804257167198],[105.87142025067693,20.108578237130267],[105.87406407120392,20.108212459911382],[105.87623592391586,20.1082368515677],[105.87932269988458,20.107073478393556],[105.88185182316886,20.10652905109652],[105.88677464865559,20.10612345746044],[105.88882544197519,20.104154198016385],[105.89061292650771,20.102760575212635],[105.89280779783631,20.100372425827857],[105.894653855259,20.098694034801586],[105.8973933004045,20.097040762390222],[105.89898305627146,20.095661848049545],[105.9028931218975,20.093538535341413],[105.90559536609823,20.09238289977814],[105.9084928550329,20.09177369203736],[105.91151793374077,20.09166512178368],[105.91272943318832,20.089101273748263],[105.91563267031181,20.08448547769664],[105.91703799980186,20.082629149998283],[105.9187558010038,20.081021332931936],[105.92328196460166,20.07830700042167],[105.92656275782196,20.075834503833377],[105.92953142756751,20.072770717114107],[105.9324336290293,20.070129555609487],[105.93429851769062,20.067595621716563],[105.93611408018701,20.065517938678656],[105.93843597728821,20.063527119317424],[105.9411633597668,20.062058518169103],[105.94249945476949,20.061668660144],[105.94495046345722,20.05979977917122],[105.94821844885529,20.057920827660336],[105.94992797138593,20.056412920881105],[105.95181679763488,20.05521743853685],[105.9539988855012,20.054061325591906],[105.95710932992766,20.052840051276345],[105.96169422604801,20.05228276672099],[105.96646478223458,20.052580990020328],[105.9713594964913,20.05239662005837],[105.9744180793665,20.052689330944798],[105.97532372805641,20.05296750381892],[105.97650197713736,20.052705632733073],[105.97920802231839,20.05259514150468],[105.98188802794097,20.052963903511866],[105.98444667258619,20.053798802879577],[105.98628911290446,20.05463369631942],[105.98738414534314,20.054615086046866],[105.99004751631158,20.053654356027298],[105.99303166674326,20.053213727829217],[105.99702942542963,20.053564157243617],[106.0000573883329,20.053210326914442],[106.00483226546535,20.053020898629978],[106.008649989985,20.049468248031523],[106.0105876863692,20.048198804228555],[106.01294029683152,20.04714409852167],[106.01687094490126,20.046222972695904],[106.02311380015018,20.045595680263336],[106.02536450221902,20.045754813401132],[106.02692854208321,20.046125947296222],[106.03073365416651,20.046188894922153],[106.03287872402468,20.046633082308322],[106.03539303166362,20.046338026450247],[106.03842867802544,20.046622445671648],[106.04133188914945,20.04750281748586],[106.04391622559295,20.048687824167544],[106.05509157867328,20.050315102031682],[106.05145284677792,20.043974564001708],[106.05044279392638,20.04179282302368],[106.04985646632743,20.03947831175064],[106.04973976024375,20.03627137982403],[106.04920281961184,20.032906953458998],[106.04816164772214,20.009720054324966],[106.04621163529913,20.00435945606254],[106.04082459450039,19.99563153326339],[106.03614821316431,19.99557027881085],[106.03327016526391,19.99527201037565],[106.02952420557989,19.994423175039607],[106.02676281530434,19.993454267645546],[106.02521272515666,19.99273221163524],[106.02201664841004,19.990699285385375],[106.01754806548873,19.98658481260655],[106.01531974807307,19.983940998352697],[106.01302292516361,19.980376838766432],[106.01080543415566,19.97596596892418],[106.00988670210576,19.973335161006375],[106.00868653119464,19.96770969580273],[106.00826432188109,19.961866117281332],[106.00815806448429,19.95398073331483],[106.00907812410739,19.94424192445764],[106.0096338533764,19.941757269666713],[106.01096768395897,19.938998465383563],[106.01318321472014,19.86416560643992],[106.0135064006616,19.861669432915996],[106.01431659462882,19.859273033321266],[106.01558562484912,19.857059671230477],[106.01726938220386,19.855106247172355],[106.01930935470537,19.853480627774626],[106.02163466133439,19.85223928903623],[106.02416451447591,19.85142535541175],[106.02681102546254,19.851067102638073],[106.0294822559674,19.8511769761463],[106.08889900665247,19.858872617969222],[106.0915510397281,19.859461312313552],[106.09403687445659,19.860510979134062],[106.09626682379728,19.861983749050825],[106.09816042648562,19.863826486907907],[106.09964934934007,19.865972707621463],[106.10067985324325,19.868344973672016],[106.10162999635955,19.873652168898854],[106.10350402222367,19.878083219378407],[106.10547298027238,19.881731240204203],[106.1071096673534,19.88443922648107],[106.1178878026623,19.898558136826047],[106.11962891440143,19.90152228831596],[106.12108534391433,19.905492684550012],[106.1301816996428,19.90854101717157],[106.14179884779622,19.911263734435302],[106.14414202585438,19.912020011008483],[106.15996402575779,19.918610491650714],[106.16329448777704,19.92054688736305],[106.1742782555856,19.929081319300458],[106.1769887354191,19.931874412597274],[106.19047310482448,19.95054799529437],[106.19495519669799,19.958352700878933],[106.19874980225691,19.966992414785256],[106.20060726342494,19.972292183666873],[106.202133215109,19.97246020071048],[106.20577448368773,19.973594130194552],[106.20818889377213,19.974747095146654],[106.21032993193937,19.97630566454179],[106.21212139582859,19.97821437353175],[106.21555570369276,19.98265820103576],[106.22895643392324,19.99738303961713],[106.24486688444908,20.035863032557327],[106.25246963331247,20.0448319265784],[106.25737630217829,20.051551114606088],[106.26151975821287,20.054091785617082],[106.2640667299054,20.056272646087134],[106.26611123972324,20.058444813208638],[106.27189915634811,20.066119570478385],[106.27854908498438,20.073166204045194],[106.28570648991628,20.080195485049735],[106.28704584265842,20.081720300941303],[106.2929963571608,20.08960716758443],[106.29903460474665,20.096523635872508],[106.30596898551626,20.102378930840835],[106.30761584675167,20.104023421048577],[106.31424649354285,20.11186711184937],[106.32341359013927,20.12214686416842],[106.33078650387762,20.1300434519619],[106.33634619670569,20.136732547084087],[106.34778349194437,20.14682947160393],[106.35742497237207,20.15665756003361],[106.36400305992791,20.163922989432816],[106.36548515672757,20.165884276656964],[106.36671202155085,20.168420310933566],[106.36970794331845,20.169361387268737],[106.37328208934751,20.171057105235874],[106.37801791832871,20.174149167639783],[106.39128083622793,20.182025241059506],[106.3934505910587,20.18353822576394],[106.39528019321551,20.185405746010527],[106.39678611728989,20.1874693060649],[106.40501072904613,20.18962686361755],[106.40802473460691,20.190636203930737],[106.4113797319318,20.192373325445615],[106.413112136379,20.193835171312635],[106.42590054138715,20.194486843350095],[106.42964211950083,20.195253368458648],[106.43553213418951,20.19744893359428],[106.44043220314458,20.19998681157125],[106.45102830874912,20.202133801796062],[106.45882167403931,20.20313369766222],[106.46580647550334,20.203625388212387],[106.47829330673234,20.20498743438629],[106.48116259550379,20.20556696741546],[106.48441011960139,20.206645086270054],[106.48897530624613,20.206207851766795],[106.49302529422465,20.206451710003844],[106.49819484560518,20.20753018873793],[106.50549529788917,20.209678013894973],[106.50780096278211,20.210568958720028],[106.51222234510765,20.212715496334503],[106.51468445934425,20.212888238588615],[106.51775751005803,20.211094974122688],[106.51984657697605,20.210333381296905],[106.52224539647716,20.209655438876297],[106.52558081532888,20.209148917903008],[106.52464784740098,20.20548510030926],[106.52466445054003,20.20274741085369],[106.52526969010701,20.2000692452351],[106.52676610108978,20.196551538514655],[106.5283810835334,20.19436762102796],[106.53042099613047,20.19252331973535],[106.53280662091402,20.19109024380416],[106.53544532512123,20.190124033838377],[106.5370871992976,20.189692070807617],[106.54049983714407,20.189198460047788],[106.54328359616004,20.189113469028186],[106.54600917105991,20.18927384287068],[106.54867494794584,20.189671810213056],[106.55147246046307,20.19036622689772],[106.5559504852016,20.192115906244357],[106.55714827180286,20.192869396761083],[106.56114068900992,20.192606117751723],[106.56367868825293,20.192721812634264],[106.56821217812183,20.193882067672785],[106.5706370309241,20.194860278981793],[106.57283044814083,20.19623810237014],[106.57720091622565,20.199566928185664],[106.58197028970385,20.20272522227195],[106.58325466394287,20.203114669842826],[106.58542294255462,20.204181918537902],[106.58935876950841,20.207281896941932],[106.5908638806784,20.20878128513036],[106.59210820174641,20.21047823741785],[106.5936533322313,20.2129741274905],[106.5951514376929,20.216411725573188],[106.59665089730602,20.221919603724114],[106.59758696935364,20.228536324430998],[106.59755714325019,20.23180782335517],[106.59724214929913,20.23406641061807],[106.59924934537064,20.237033696698145],[106.60045215805015,20.239235059262683],[106.60120632069322,20.241605487617626],[106.60148645205496,20.244065270809863],[106.6012831091764,20.24653168932884],[106.60060310791056,20.248921796620138],[106.59598926797682,20.260670692323703],[106.593318731867,20.267004891691403],[106.59200924233183,20.269386821205334],[106.58921342737254,20.27342801133658],[106.58783895124051,20.275109061716034],[106.58062005665089,20.282631499022106],[106.57105560635601,20.29079596316095],[106.56338405877699,20.298448459963886],[106.5506555666046,20.31050408922319],[106.5405692356546,20.32326609600764],[106.53785356094124,20.325874555102324],[106.53533749479695,20.327712681868064],[106.53267997145522,20.329251086480983],[106.52973096478992,20.330215380843715],[106.52662949653421,20.330560104726345],[106.52262319921917,20.330408382327185],[106.51704800614047,20.328851597653316],[106.5137859742762,20.327374600514307],[106.50641964226763,20.322931587573006],[106.49888449777525,20.323146411487382],[106.49484625433774,20.322749172559543],[106.49210403648478,20.322103119273372],[106.48945982492259,20.321214986673795],[106.48705009039108,20.319861917070536],[106.48500902447071,20.3184448182454],[106.48250599481757,20.316225695583515],[106.47741233166147,20.31047806039244],[106.47183506564608,20.30550852566822],[106.4705573629843,20.304971221907554],[106.46617343870173,20.303942934543795],[106.46098984755542,20.303219007219244],[106.45709415433087,20.303307751548918],[106.4509272068637,20.3046323993252],[106.44627087492985,20.306471841761503],[106.44160771286889,20.309483781711535],[106.43648653248754,20.31352107391922],[106.43225580021493,20.318485841994956],[106.4235170796766,20.330240993077982],[106.41953914900769,20.33729171275153],[106.417586924875,20.339933111288346],[106.41266700546778,20.345135411731384],[106.41020737012987,20.347200652037106],[106.40013001592568,20.353879129069814],[106.39726170470459,20.355352977777553],[106.39241237972848,20.357208128988145],[106.3885056922476,20.35813138820579],[106.37551612762408,20.359313086186663],[106.36901590273433,20.360833414526805],[106.36570441800697,20.362500047870345],[106.36432993639869,20.363711000062622],[106.36213276006843,20.366521948179212],[106.35751502233055,20.374735050068125],[106.35408877981068,20.3817033423451],[106.3527548132003,20.383864266258865],[106.34920782317626,20.38739783386144],[106.3469031191612,20.389095846552838],[106.34427911018469,20.390320843032633],[106.34144468723072,20.39102198545236],[106.33871045740064,20.39142502105707],[106.33524668843803,20.391539531810547],[106.33185417745527,20.39087444768293],[106.32921098332825,20.390034378994933],[106.32699703879499,20.38913014720939],[106.32497560340212,20.387891614646502],[106.323203605731,20.386353664578564],[106.30977499052167,20.372493001820988],[106.3034267502783,20.36862937445495],[106.29802059303522,20.364750106367495],[106.29648385775381,20.36347449860488],[106.28540610992943,20.352824815900863],[106.27969037061928,20.34814231874091],[106.27270349726417,20.34390009631078],[106.26818382790387,20.3418093222011],[106.26605777971326,20.34119719284345],[106.26483586238248,20.34466776290096],[106.26466450198112,20.346808531005824],[106.26564185561587,20.350515982074576],[106.26601309472555,20.351143894063604],[106.26909686741945,20.35389710284994],[106.28522122178495,20.365142254428104],[106.28704300696451,20.366652704799876],[106.29409604569622,20.37358028748407],[106.29559867395882,20.375326223878524],[106.29677190557034,20.377281447638868],[106.29758328599748,20.379391893968617],[106.2987326199131,20.383398802170213],[106.29922511651459,20.38707042055469],[106.29916255328148,20.391756424318963],[106.29852790289586,20.3955527764405],[106.29714424395998,20.399769883563255],[106.29570801174732,20.402777729236846],[106.29230328143319,20.40806196682537],[106.29097553054794,20.409795951462065],[106.28937256377995,20.411311951339894],[106.28554449943924,20.414400155832464],[106.28300323551554,20.416041071202276],[106.28014710563659,20.417136547019314],[106.27397363108933,20.4188066884674],[106.26383546098192,20.420308990719228],[106.26150562869631,20.420445401395398],[106.2380927477057,20.41989478346446],[106.23314955471895,20.420665995630443],[106.22944442693503,20.42195529764083],[106.22578582112837,20.423960902607284],[106.22294736242797,20.42731132114455],[106.22995146919286,20.4377771031987],[106.23093255972866,20.43951183349399],[106.23598930073544,20.45028045297124],[106.23695609099953,20.45319791363466],[106.23832969082883,20.45997780180057],[106.23857891409372,20.462201044998018],[106.23843283061136,20.46443232172024],[106.23785416910665,20.468165367849448],[106.23707334352595,20.470996805961434],[106.23498373272139,20.476174965154765],[106.23372120357044,20.478560379955848],[106.23198309573303,20.480667009384028],[106.22654613688448,20.486059333000743],[106.22444520160828,20.487774933923976],[106.22203077421489,20.489079254959382],[106.21677244172304,20.49131543368095],[106.2140659075027,20.492174648965957],[106.20586024459722,20.493952801751213],[106.20252067206567,20.494299504331],[106.19279452850952,20.494257763819924],[106.19173289025245,20.496333012718598],[106.19108446402396,20.499028860293453],[106.1922849728433,20.514623417197544],[106.19222480988977,20.51716027591432],[106.1912091555782,20.52500068147797],[106.18856931308419,20.538021892224272],[106.18554269305902,20.55102539443969],[106.18491130370275,20.552996864904294],[106.18396693539425,20.55485544265639],[106.17796650932638,20.564484754786232],[106.17495064410474,20.568329953935617],[106.17282464946634,20.570497993456055],[106.1674558839194,20.574669016893402],[106.16542496579615,20.575659129732294],[106.15732642805895,20.578869389388856],[106.14576311958457,20.582500405807348],[106.14316687402777,20.58366491078385],[106.14082579554037,20.599374513158],[106.14030004534303,20.601550868405226],[106.1393982092175,20.603616323825634],[106.13438878243856,20.612828689678544],[106.1289358817444,20.62069183567575],[106.12730437085864,20.622596671606743],[106.12533271937328,20.624195079546176],[106.12088827309579,20.627185471244882],[106.11859182927802,20.628447325644043],[106.11608651214199,20.629292231279788],[106.11122012483145,20.63047133163888],[106.10881756688426,20.63085422143015],[106.10353810644786,20.63127025804812],[106.09484622007983,20.6309591494128],[106.09103218899179,20.63027593597634],[106.08685787950267,20.628962826930135],[106.084103007201,20.627781673922673],[106.08167291443142,20.62608756641274],[106.0733432497893,20.618889263830656],[106.07212154085657,20.618003539825356],[106.07124178940607,20.61780892040349],[106.07049282341937,20.617882716350152],[106.06609025739365,20.61953171502583],[106.06244789804293,20.62231241291117],[106.0545830400501,20.63006345164815],[106.04787679895922,20.638455909536596],[106.04553352681012,20.642312218054528],[106.04496905622783,20.644107195684033],[106.0463239385547,20.651342821779277],[106.04906007390662,20.662451955665503],[106.04940571668742,20.664725655979613],[106.04986443504755,20.672372618602395],[106.04972999438073,20.67511451177288],[106.04875555364185,20.681239591146287],[106.04822881915808,20.68335866536678],[106.04734480194455,20.685370958748944],[106.04343125055117,20.69256624550397],[106.04127216240964,20.69549911885007],[106.03168449553611,20.705407554817725],[106.02939699644915,20.707316985509774],[106.02019067433046,20.713491426199457],[106.01800380769198,20.714700465591108],[106.01562404489593,20.71553181799904],[106.0084204772446,20.71739097505816],[106.00517351633827,20.71786556524558],[106.00006706579816,20.718060581986833],[105.99738650236861,20.71792905769064],[105.99477844139152,20.717335155212577],[105.99233324701063,20.716299452395557],[105.99013563615341,20.71485783422629],[105.98826174175912,20.713060248619957],[105.98677647442095,20.71096897477705],[105.98573127398947,20.708656464297036],[105.98246593749793,20.699014106955346],[105.97513552020804,20.691440923258494],[105.96443094721853,20.68133879334678],[105.95985686722815,20.678574126356953],[105.95927495600357,20.678475161020145],[105.95918427166247,20.679584857469234],[105.95848953444516,20.68200521198628],[105.95705181068962,20.685629323163106],[105.9559504875176,20.687793399502052],[105.95445713468644,20.689740966336142],[105.9509368262182,20.693201595554264],[105.94867945827849,20.69458108626091],[105.94618699688212,20.695543294726573],[105.94300476309428,20.69616723459453],[105.93868540814758,20.69600697352011],[105.93413256760094,20.694895739594198],[105.92895549942051,20.694225633780253],[105.92247797723176,20.692743506363282],[105.91313031164496,20.689476183908507],[105.90419499803659,20.685649626339213],[105.90201202614853,20.684481685380305],[105.89863558519633,20.681636708726145],[105.89439492429737,20.682142713335875],[105.89163684061984,20.681884848853997],[105.88898248331763,20.681137969852788],[105.88652996452224,20.67992968362068],[105.8843699303822,20.678304651796807],[105.88258220909525,20.67632293842598],[105.88123286008641,20.674057788555526],[105.88037173349858,20.67159291972523],[105.87972114757255,20.665381323333687],[105.87995019402089,20.659686524305734],[105.87539502900117,20.657605554790873],[105.86877009136994,20.659538285702215],[105.86485017125034,20.65998822446406],[105.86058179104798,20.659790842935855],[105.8577632400047,20.663951716910564],[105.85493871122725,20.66680672069175],[105.85014867864516,20.670071942207965],[105.84413961965669,20.67275340702353],[105.83710328686716,20.67528693617936],[105.83040212371165,20.678424822872387],[105.8280317154306,20.679015983890565],[105.82558849400586,20.679222604664513],[105.82105709381516,20.679243605191925],[105.81788404400629,20.6789278947778],[105.81486295659359,20.677966917409435],[105.81214182644383,20.676407750163936],[105.81007076995314,20.674902645611393],[105.80812334362682,20.673194597594623],[105.8065458725471,20.671179927046726],[105.80539241828704,20.668927698681284],[105.80470250122596,20.666515117701916],[105.80432658906447,20.66247232450224],[105.80445279556713,20.660273335555896],[105.80479921759063,20.657971643764686],[105.80556275611758,20.65575976041499],[105.80672072593323,20.65370335153767],[105.80954835101265,20.649672307291098],[105.80238978624791,20.64433126742248],[105.79927631385074,20.64118660043472],[105.79648584722095,20.636401695199027],[105.79534612016268,20.633604398466822],[105.79484787553912,20.629242728560182],[105.79503178811073,20.626641604131773],[105.79563534900146,20.62320668602887],[105.7926477809429,20.620348220800242],[105.79107137214115,20.617815683767372],[105.79011665268736,20.61502423693142],[105.78951478052383,20.610911745767485],[105.7900413237757,20.607108187806624],[105.7892062963384,20.605689042739506],[105.78585885135976,20.598051790646263],[105.78519334705697,20.59613763000483],[105.78454627858792,20.591129822669128],[105.78200342166322,20.58016313792026],[105.78045957944497,20.579735885343652],[105.77653440443447,20.5792006253767],[105.77078553162892,20.57875718171549],[105.76569727760682,20.578118085542904],[105.762978738011,20.577509129897862],[105.7604369792832,20.576420191383136],[105.7581676746638,20.57489226036063],[105.75625623478484,20.572982850449016],[105.75477459208538,20.5707638322748],[105.75377849402098,20.568318726830253],[105.75330540689001,20.565739560581168],[105.7533731088937,20.563123400931563],[105.75506026144215,20.55509594273369],[105.75585793170174,20.552587756333036],[105.75827133284076,20.54703594126049],[105.75937744980719,20.545003051788036],[105.76280970095945,20.5398292918442],[105.76505394572234,20.53723068178163],[105.76778515086387,20.534767564921324],[105.77433171888762,20.520958080353655],[105.77904568155735,20.511810623254448],[105.78080914072495,20.509204920573286],[105.7838322278305,20.50570011360215],[105.78726051940157,20.50275747206021],[105.78966499393164,20.49818499651541],[105.79091855330316,20.496235505787464],[105.79250410501406,20.494511129432134],[105.79437651947777,20.49306093728736],[105.7975743986351,20.490983086179266],[105.80028452081123,20.489599185374253],[105.80324718389093,20.4887880164408],[105.80632631337201,20.488586835575184],[105.80717031866432,20.488702366228303],[105.81093581195334,20.482824368838834],[105.81252676032413,20.480796844499952],[105.81449195731744,20.479081372917577],[105.81676302291098,20.477737635098496],[105.83402720967842,20.469366560561614],[105.83587647435724,20.468623320456658],[105.8351004115245,20.46168940945518],[105.8351236053464,20.458682117867976],[105.8379642795461,20.43713501081268],[105.83673947902486,20.437860519715716],[105.83423206053966,20.438788533596416],[105.83158394257833,20.439262171482113],[105.8270852367001,20.43944737199805],[105.82455509207013,20.439032595187182],[105.82145348636499,20.43782353148943],[105.81757725128175,20.439416589086587],[105.8118627251477,20.44534581981245],[105.80940359330653,20.449789518945483],[105.80719619456124,20.452996079838538],[105.80651228458045,20.456943591066356],[105.8057761340494,20.45949119422801],[105.80452458827925,20.46185573262878],[105.80280553982699,20.463946681014292],[105.80068478707685,20.465683985001505],[105.798243516536,20.467001127483627],[105.79557519442744,20.467847676868967],[105.79051420395092,20.46855465547394],[105.78759180544361,20.468309583490633],[105.7798787268268,20.4666543158237],[105.77731509094731,20.465528495714604],[105.77503621322505,20.463954412314514],[105.77313021710764,20.4619929418682],[105.77167079716973,20.459719939836468],[105.77071437006192,20.45722330585116],[105.77050189478314,20.45588475790991],[105.76777538970755,20.45530245687346],[105.76131962326671,20.455797772304724],[105.75442679316683,20.45602459222391],[105.75131684269897,20.455802821263475],[105.74833086773094,20.454958697140455],[105.74560902480872,20.453531842622976],[105.74238691293746,20.451382689174217],[105.74008165884054,20.44946550151901],[105.7382648503532,20.447132450181982],[105.73672582221609,20.443626468258497],[105.73614188316843,20.441085216965543],[105.73534248040825,20.43531283773412],[105.735261959391,20.432209965596247],[105.73594035856306,20.429171975327154],[105.7391299996715,20.420199162283538],[105.73810719579691,20.418275294844676],[105.73738009432438,20.415885002389594],[105.73677061615415,20.412379343603195],[105.73545327312387,20.4133057146917],[105.73234865900373,20.414602215982665],[105.72883262680456,20.41790444992667],[105.72662169444338,20.41948134145301],[105.72412864586182,20.42063075210634],[105.72144638102853,20.421309848447773],[105.71913784944834,20.42146267614348],[105.71596921702209,20.422384440650415],[105.712512936177,20.424169229879222],[105.71002761793135,20.425047930755735],[105.70741230894099,20.425483677964703],[105.7047560888815,20.42546162958295],[105.70110277758556,20.424906926831962],[105.69906935452138,20.425499104730065],[105.69513131922037,20.42610310466022],[105.69213605735193,20.426168108996436],[105.68857502574649,20.42582816036651],[105.68522549973609,20.42510579599602],[105.68096495817251,20.424500839395886],[105.67873686867378,20.423732442108566],[105.67562485108927,20.421958211503455],[105.67369579501089,20.420474881848953],[105.67206911508327,20.418701613724533],[105.6707936917769,20.41669170472165],[105.66939745345026,20.4136193597717],[105.66877594298829,20.4107000823733],[105.66869953468309,20.407407440044395],[105.6689237256568,20.405326459307148],[105.66953445707115,20.402573819968243],[105.67074066745577,20.399999609440616],[105.67248993793936,20.397715636733942],[105.67436053951508,20.3955951959322],[105.67770033161257,20.39268424198256],[105.67790458596782,20.390095072906167],[105.67870031114848,20.38746246899609],[105.67984305356894,20.38540126566656],[105.68064368945629,20.38284710924774],[105.68224704777283,20.37959030337949],[105.68398950449655,20.377105500506204],[105.68608386886525,20.375174149939316],[105.68818385343857,20.3736991712238],[105.6888823765541,20.372673037650955],[105.68927778029281,20.370924402673175],[105.6903552530194,20.36854198365989],[105.69522484949256,20.360753093116763],[105.69523328262946,20.35933562265207],[105.69565780273975,20.357070126021906],[105.69658278238076,20.354708685150598],[105.69799251699317,20.352439686915567],[105.69967035898273,20.350654815130632],[105.7006838351162,20.348738373711672],[105.70570380808091,20.340931788123328],[105.70361337720938,20.340778205137003],[105.69975020182545,20.339958600080816],[105.69507828377415,20.337854226338525],[105.69256664713498,20.33630221471115],[105.69045414161434,20.3342943947299],[105.68883311606879,20.33191855529996],[105.68792534023083,20.32965491443718],[105.68622014576184,20.327306664798524],[105.68511513693056,20.326726635538026],[105.6830804149854,20.325136765706457],[105.68139104379831,20.323224031731908],[105.68001861420612,20.32087101555134],[105.67818977002685,20.321744790781324],[105.67722694190726,20.323656229750096],[105.67573382429164,20.32559104546402],[105.66819707508337,20.332430065475616],[105.66603670436668,20.334113085842972],[105.66121651697961,20.336643522684692],[105.65855643885703,20.34052183617092],[105.657006175582,20.34205355216018],[105.65443180566487,20.346077199549924],[105.65247482689202,20.348214807050045],[105.65008695584899,20.349924689385457],[105.64756925405419,20.35104466774486],[105.64498587185375,20.35348759672185],[105.64258733239564,20.355095177835594],[105.63805480616051,20.357261134332557],[105.63546943001398,20.35869910948222],[105.63463469309382,20.359426074505524],[105.63238345538514,20.36075887967901],[105.63020006639164,20.361645863916955],[105.62658665547785,20.362393439142423],[105.62412326943586,20.362323274792697],[105.62275566419548,20.363299129519323],[105.61870976747933,20.366905918863807],[105.61810051070636,20.36793265504063],[105.61631823272832,20.369999835904455],[105.61413813393757,20.371699252173407],[105.61088990803455,20.373407921969015],[105.60864534363293,20.374273227772207],[105.6054039587432,20.376250057606075],[105.58665786432265,20.38270155080779],[105.58432467518712,20.38319759175347],[105.58134972525606,20.383530258578904],[105.57836576994069,20.383278253269246],[105.57550217561663,20.382452501503234],[105.57368405693971,20.38172644243688],[105.57062534510243,20.380062080136483],[105.5651651881724,20.376177809169526],[105.56215651875824,20.37344171416695],[105.55824602482423,20.37357642555162],[105.55689072301817,20.373889746043247],[105.55291192862958,20.3742797001551],[105.55027368312899,20.37520786469925],[105.54726318642336,20.37675347083131],[105.54456601915534,20.377530695870906],[105.54175889725143,20.377799552957214],[105.538949779786,20.377549702294033],[105.5362467025561,20.376790753104995],[105.5337536200129,20.375551893761017],[105.53156640475552,20.37388076838804],[105.52976915894314,20.371841643319737],[105.52843097980842,20.369512934148137],[105.52760330376084,20.366984188753854],[105.52731793106791,20.364352642613504],[105.52729939264994,20.358764973476408]]]}}]}